STARLINK-35326          
1 66031U 25232AC  25318.60089142  .00095212  00000+0  16956-2 0  9996
2 66031  53.1589 279.2743 0002305  74.3973 285.7291 15.49367293  5802
STARLINK-35311          
1 66032U 25232AD  25318.85859441  .00086577  00000+0  15460-2 0  9994
2 66032  53.1574 278.0391 0001933  74.5459 285.5764 15.49336218  5840
QIANFAN-91              
1 66033U 25233A   25319.32814784  .00001022  00000+0  45672-3 0  9991
2 66033  88.9943  65.1971 0016413 120.6121 239.6691 14.21913103  4137
QIANFAN-92              
1 66034U 25233B   25318.62396559  .00001097  00000+0  48637-3 0  9995
2 66034  88.9958  65.2691 0016494 123.0711 237.2067 14.22369346  4030
QIANFAN-93              
1 66035U 25233C   25319.25385573  .00001203  00000+0  53206-3 0  9997
2 66035  88.9961  65.1965 0016359 122.3494 237.9284 14.22546147  4122
QIANFAN-94              
1 66036U 25233D   25318.62181117  .00001110  00000+0  49238-3 0  9993
2 66036  88.9960  65.2692 0016050 122.2945 237.9803 14.22350782  4033
QIANFAN-95              
1 66037U 25233E   25319.45931559  .00001317  00000+0  54363-3 0  9993
2 66037  88.9961  65.1715 0016222 121.9862 238.2911 14.26178473  4151
QIANFAN-96              
1 66038U 25233F   25318.55094773  .00000970  00000+0  42982-3 0  9990
2 66038  88.9959  65.2770 0016690 125.3092 234.9663 14.22262821  4023
QIANFAN-97              
1 66039U 25233G   25319.25361117  .00001064  00000+0  48059-3 0  9994
2 66039  88.9964  65.2139 0017258 126.9805 233.2969 14.21339758  4124
QIANFAN-98              
1 66040U 25233H   25319.45848318  .00001280  00000+0  52793-3 0  9991
2 66040  88.9961  65.1715 0016069 122.1194 238.1561 14.26209079  4152
QIANFAN-99              
1 66041U 25233J   25319.11267656  .00001071  00000+0  47990-3 0  9996
2 66041  88.9995  65.2072 0013676 112.1668 248.0976 14.21795259  4103
QIANFAN-100             
1 66042U 25233K   25318.61613674  .00001337  00000+0  55129-3 0  9994
2 66042  88.9960  65.2682 0016622 125.1842 235.0911 14.26237761  4036
